{"_default": { "699": {"norad_id": "98988", "name": "UMBRA-07", "tle1": "1 58297U 23174AT  26164.12722311  .00009865  00000-0  62623-3 0  9996", "tle2": "2 58297  97.3795 220.0429 0004751  97.9916 262.1852 15.09060918142800", "object_type": "PAYLOAD", "criticality_score": 7.0, "last_updated": "2026-06-13T17:29:25.184973+00:00", "maneuver_count": 0, "owner": "N/A"}, "700": {"norad_id": "98999", "name": "WEDGIERIDE HELLOTEST", "tle1": "1 70324C 23174Z   23315.82508771 -.00009936  00000+0 -55258-3 0    04", "tle2": "2 70324  97.5034  28.7670 0013671 274.8263  81.0817 15.13680427    19", "object_type": "PAYLOAD", "criticality_score": 7.0, "last_updated": "2026-06-13T17:29:25.184973+00:00", "maneuver_count": 0, "owner": "N/A"}, "701": {"norad_id": "99060", "name": "EQUALIZER03 HERONMK2", "tle1": "1 70375C 23174CC  23315.83661433 -.00026412  00000+0 -14574-2 0    09", "tle2": "2 70375  97.4819  28.7762 0009329 264.3585 154.3842 15.14010932    14", "object_type": "PAYLOAD", "criticality_score": 7.0, "last_updated": "2026-06-13T17:29:25.184973+00:00", "maneuver_count": 0, "owner": "N/A"}, "702": {"norad_id": "58264", "name": "BRO-11", "tle1": "1 58264U 23174J   26164.25071177  .00004434  00000-0  16827-3 0  9993", "tle2": "2 58264  97.3910 241.1306 0009495 213.7845 146.2790 15.27325026144157", "object_type": "PAYLOAD", "criticality_score": 7.0, "last_updated": "2026-06-13T17:29:25.184973+00:00", "maneuver_count": 0, "owner": "N/A"}, "703": {"norad_id": "58331", "name": "BRO-10", "tle1": "1 58331U 23174CD  26115.38949140  .08188723  24853-5  11659-2 0  9998", "tle2": "2 58331  97.3464 212.6257 0014863 262.6139  97.3468 16.34539426138137", "object_type": "PAYLOAD", "criticality_score": 7.0, "last_updated": "2026-06-13T17:29:25.184973+00:00", "maneuver_count": 0, "owner": "N/A"}, "704": {"norad_id": "58276", "name": "GENMAT-1", "tle1": "1 58276U 23174W   26164.20755164  .00009766  00000-0  29363-3 0  9998", "tle2": "2 58276  97.3682 242.0386 0006462 185.2993 174.8183 15.34579879144363", "object_type": "PAYLOAD", "criticality_score": 7.0, "last_updated": "2026-06-13T17:29:25.184973+00:00", "maneuver_count": 0, "owner": "N/A"}, "705": {"norad_id": "58301", "name": "IMPULSE-1 MIRA", "tle1": "1 58301U 23174AX  26164.20006213  .00015756  00000-0  42291-3 0  9992", "tle2": "2 58301  97.5195 249.6001 0074169 135.6864 225.0350 15.35215311144280", "object_type": "PAYLOAD", "criticality_score": 7.0, "last_updated": "2026-06-13T17:29:25.184973+00:00", "maneuver_count": 0, "owner": "N/A"}, "706": {"norad_id": "58288", "name": "ICEYE-X31", "tle1": "1 58288U 23174AJ  26164.28866819  .00018673  00000-0  56605-3 0  9995", "tle2": "2 58288  97.3791 240.0304 0001458   9.7490 350.3781 15.34182880144151", "object_type": "PAYLOAD", "criticality_score": 7.0, "last_updated": "2026-06-13T17:29:25.184973+00:00", "maneuver_count": 0, "owner": "N/A"}, "707": {"norad_id": "98975", "name": "SUPERDOVE 003 A13", "tle1": "1 70346C 23174AX  23315.82819651 -.00021381  00000+0 -11934-2 0    00", "tle2": "2 70346  97.4860  28.7718 0010077 280.2303  92.6472 15.13591049    11", "object_type": "PAYLOAD", "criticality_score": 7.0, "last_updated": "2026-06-13T17:29:25.184973+00:00", "maneuver_count": 0, "owner": "N/A"}, "708": {"norad_id": "55041", "name": "SKYKRAFT-1", "tle1": "1 55041U 23001AJ  26164.28899109  .00048457  00000-0  46542-3 0  9998", "tle2": "2 55041  97.3190 241.3905 0004236  97.9036 262.2706 15.66458656192446", "object_type": "PAYLOAD", "criticality_score": 7.0, "last_updated": "2026-06-13T17:29:25.184973+00:00", "maneuver_count": 0, "owner": "N/A"}, "709": {"norad_id": "37386", "name": "NOSS 3-5 (A)", "tle1": "1 37386U 11014A   26126.81494797 0.00000000  00000-0  00000-0 0    03", "tle2": "2 37386  63.4277  27.0384 0352695 356.6835   3.3164 13.41086062    06", "object_type": "PAYLOAD", "criticality_score": 9.0, "last_updated": "2026-06-13T17:29:25.184973+00:00", "maneuver_count": 0, "owner": "N/A"}, "710": {"norad_id": "28537", "name": "NOSS 3-3 (A)", "tle1": "1 28537U 05004A   26157.96827020 0.00000000  00000-0  00000-0 0    02", "tle2": "2 28537  63.3754  92.1187 0529052   4.8726 355.1274 13.41264466    07", "object_type": "PAYLOAD", "criticality_score": 9.0, "last_updated": "2026-06-13T17:29:25.184973+00:00", "maneuver_count": 0, "owner": "N/A"}, "711": {"norad_id": "55061", "name": "SKYKRAFT-1C", "tle1": "1 55061U 23001BE  26164.13613624  .00003425  00000-0  14001-3 0  9991", "tle2": "2 55061  97.3196 217.8813 0011248 153.1222 207.0601 15.24968283190864", "object_type": "PAYLOAD", "criticality_score": 7.0, "last_updated": "2026-06-13T17:29:25.184973+00:00", "maneuver_count": 0, "owner": "N/A"}, "712": {"norad_id": "55054", "name": "SKYKRAFT-1A", "tle1": "1 55054U 23001AX  26164.14725331  .00005355  00000-0  19114-3 0  9997", "tle2": "2 55054  97.3225 221.5798 0010689 139.7084 220.4951 15.29232715191101", "object_type": "PAYLOAD", "criticality_score": 7.0, "last_updated": "2026-06-13T17:29:25.184973+00:00", "maneuver_count": 0, "owner": "N/A"}, "713": {"norad_id": "57795", "name": "TIANQI 24", "tle1": "1 57795U 23135D   26164.30291702 -.00000175  00000-0 -71233-5 0  9996", "tle2": "2 57795  49.9715 169.1266 0014392 248.8626 111.0748 14.23142833144075", "object_type": "PAYLOAD", "criticality_score": 7.0, "last_updated": "2026-06-13T17:29:25.184973+00:00", "maneuver_count": 0, "owner": "N/A"}, "714": {"norad_id": "51850", "name": "GOES 18", "tle1": "1 51850U 22021A   26164.02185602  .00000110  00000-0  00000-0 0  9991", "tle2": "2 51850   0.0390 159.0555 0000450   4.1908 328.9636  1.00271996  6552", "object_type": "PAYLOAD", "criticality_score": 8.5, "last_updated": "2026-06-13T17:29:25.184973+00:00", "maneuver_count": 0, "owner": "N/A"}, "715": {"norad_id": "57183", "name": "OBJECT T", "tle1": "1 57183U 23091T   26164.25105644  .00005119  00000-0  24776-3 0  9990", "tle2": "2 57183  97.5095 222.9026 0012660 121.1609 239.0868 15.18956186163375", "object_type": "PAYLOAD", "criticality_score": 7.0, "last_updated": "2026-06-13T17:29:25.184973+00:00", "maneuver_count": 0, "owner": "N/A"}, "716": {"norad_id": "49122", "name": "GAOFEN-5 02", "tle1": "1 49122U 21079A   26164.27980134  .00000096  00000-0  31069-4 0  9998", "tle2": "2 49122  98.2610 238.6151 0001693  45.5403 314.5934 14.57691371253511", "object_type": "PAYLOAD", "criticality_score": 7.0, "last_updated": "2026-06-13T17:29:25.184973+00:00", "maneuver_count": 0, "owner": "N/A"}, "717": {"norad_id": "28413", "name": "SHIJIAN 6 01A (SJ-6 01A)", "tle1": "1 28413U 04035A   26164.07871982  .00008439  00000-0  41871-3 0  9999", "tle2": "2 28413  97.5863 191.1715 0007435 140.0341 220.1441 15.17942611186843", "object_type": "PAYLOAD", "criticality_score": 9.0, "last_updated": "2026-06-13T17:29:25.184973+00:00", "maneuver_count": 0, "owner": "N/A"}, "718": {"norad_id": "58349", "name": "HAIYANG 3A", "tle1": "1 58349U 23176A   26164.33014705  .00000096  00000-0  50010-4 0  9995", "tle2": "2 58349  98.5470 242.3446 0010341  43.0452 317.1540 14.34171253134769", "object_type": "PAYLOAD", "criticality_score": 7.0, "last_updated": "2026-06-13T17:29:25.184973+00:00", "maneuver_count": 0, "owner": "N/A"}, "719": {"norad_id": "99024", "name": "PICO-1A-1", "tle1": "1 99024U          23325.95555556  .00000000  00000-0  71105-4 0    05", "tle2": "2 99024  97.4837  38.7502 0015373 231.5222 237.3442 15.14398988    06", "object_type": "PAYLOAD", "criticality_score": 7.0, "last_updated": "2026-06-13T17:29:25.184973+00:00", "maneuver_count": 0, "owner": "N/A"}, "720": {"norad_id": "99023", "name": "PICO-1A-2", "tle1": "1 99023U          23325.95555556  .00000000  00000-0  71105-4 0    04", "tle2": "2 99023  97.4837  38.7502 0015373 231.5222 237.3442 15.14398988    05", "object_type": "PAYLOAD", "criticality_score": 7.0, "last_updated": "2026-06-13T17:29:25.184973+00:00", "maneuver_count": 0, "owner": "N/A"}, "721": {"norad_id": "99022", "name": "PICO-1A-3", "tle1": "1 99022U          23325.95555556  .00000000  00000-0  71105-4 0    03", "tle2": "2 99022  97.4837  38.7502 0015373 231.5222 237.3442 15.14398988    04", "object_type": "PAYLOAD", "criticality_score": 7.0, "last_updated": "2026-06-13T17:29:25.184973+00:00", "maneuver_count": 0, "owner": "N/A"}, "722": {"norad_id": "99021", "name": "PICO-1A-4", "tle1": "1 99021U          23325.95555556  .00000000  00000-0  71105-4 0    02", "tle2": "2 99021  97.4837  38.7502 0015373 231.5222 237.3442 15.14398988    03", "object_type": "PAYLOAD", "criticality_score": 7.0, "last_updated": "2026-06-13T17:29:25.184973+00:00", "maneuver_count": 0, "owner": "N/A"}, "723": {"norad_id": "99020", "name": "PICO-1A-5", "tle1": "1 99020U          23325.95555556  .00000000  00000-0  71105-4 0    01", "tle2": "2 99020  97.4837  38.7502 0015373 231.5222 237.3442 15.14398988    02", "object_type": "PAYLOAD", "criticality_score": 7.0, "last_updated": "2026-06-13T17:29:25.184973+00:00", "maneuver_count": 0, "owner": "N/A"}, "724": {"norad_id": "99019", "name": "PICO-1A-6", "tle1": "1 99019U          23325.95555556  .00000000  00000-0  71105-4 0    09", "tle2": "2 99019  97.4837  38.7502 0015373 231.5222 237.3442 15.14398988    00", "object_type": "PAYLOAD", "criticality_score": 7.0, "last_updated": "2026-06-13T17:29:25.184973+00:00", "maneuver_count": 0, "owner": "N/A"}, "725": {"norad_id": "99018", "name": "PICO-1A-7", "tle1": "1 99018U          23325.95555556  .00000000  00000-0  71105-4 0    08", "tle2": "2 99018  97.4837  38.7502 0015373 231.5222 237.3442 15.14398988    09", "object_type": "PAYLOAD", "criticality_score": 7.0, "last_updated": "2026-06-13T17:29:25.184973+00:00", "maneuver_count": 0, "owner": "N/A"}, "726": {"norad_id": "99016", "name": "PICO-1A-9", "tle1": "1 99016U          23325.95555556  .00000000  00000-0  71105-4 0    06", "tle2": "2 99016  97.4837  38.7502 0015373 231.5222 237.3442 15.14398988    07", "object_type": "PAYLOAD", "criticality_score": 7.0, "last_updated": "2026-06-13T17:29:25.184973+00:00", "maneuver_count": 0, "owner": "N/A"}}}